start=new Date('2022-05-04T00:00:00.000Z').valueOf();
sats=[{"ARG_OF_PERICENTER":"63.0078","TIME_SYSTEM":"UTC","RCS_SIZE":"LARGE","SITE":"AFETR","EPHEMERIS_TYPE":"0","ECCENTRICITY":"0.00018750","COUNTRY_CODE":"US","MEAN_MOTION_DDOT":"0.0000000000000","CLASSIFICATION_TYPE":"U","MEAN_MOTION_DOT":"0.00004666","ELEMENT_SET_NO":"999","SEMIMAJOR_AXIS":"6925.303","CENTER_NAME":"EARTH","TLE_LINE2":"2 47813  53.0562  63.9283 0001875  63.0078 297.1103 15.06414813 64996","RA_OF_ASC_NODE":"63.9283","APOAPSIS":"548.467","MEAN_ELEMENT_THEORY":"SGP4","REV_AT_EPOCH":"6499","OBJECT_ID":"2021-018AC","BSTAR":"0.00033183000000","TLE_LINE1":"1 47813U 21018AC  22123.57207741  .00004666  00000-0  33183-3 0  9991","PERIOD":"95.591","MEAN_MOTION":"15.06414813","EPOCH":"2022-05-03T13:43:47.488224","REF_FRAME":"TEME","MEAN_ANOMALY":"297.1103","FILE":"3427159","INCLINATION":"53.0562","OBJECT_TYPE":"PAYLOAD","DECAY_DATE":null,"LAUNCH_DATE":"2021-03-11","PERIAPSIS":"545.870","GP_ID":"202599440","OBJECT_NAME":"STARLINK-2394","NORAD_CAT_ID":"47813"},{"CLASSIFICATION_TYPE":"U","MEAN_MOTION_DDOT":"0.0000000000000","COUNTRY_CODE":"US","ECCENTRICITY":"0.00021330","SITE":"AFETR","EPHEMERIS_TYPE":"0","TIME_SYSTEM":"UTC","RCS_SIZE":"MEDIUM","ARG_OF_PERICENTER":"42.9175","REV_AT_EPOCH":"6467","MEAN_ELEMENT_THEORY":"SGP4","APOAPSIS":"548.699","CENTER_NAME":"EARTH","TLE_LINE2":"2 47814  53.0558  85.3169 0002133  42.9175 317.1980 15.06397359 64671","RA_OF_ASC_NODE":"85.3169","SEMIMAJOR_AXIS":"6925.357","ELEMENT_SET_NO":"999","MEAN_MOTION_DOT":"-0.00000340","MEAN_MOTION":"15.06397359","PERIOD":"95.592","TLE_LINE1":"1 47814U 21018AD  22123.26432158 -.00000340  00000-0 -39029-5 0  9994","BSTAR":"-0.00000390290000","OBJECT_ID":"2021-018AD","LAUNCH_DATE":"2021-03-11","PERIAPSIS":"545.744","NORAD_CAT_ID":"47814","GP_ID":"202600691","OBJECT_NAME":"STARLINK-2395","DECAY_DATE":null,"FILE":"3427159","INCLINATION":"53.0558","OBJECT_TYPE":"PAYLOAD","EPOCH":"2022-05-03T06:20:37.384512","REF_FRAME":"TEME","MEAN_ANOMALY":"317.1980"},{"ARG_OF_PERICENTER":"50.2626","RCS_SIZE":"LARGE","TIME_SYSTEM":"UTC","SITE":"AFETR","EPHEMERIS_TYPE":"0","ECCENTRICITY":"0.00019830","COUNTRY_CODE":"US","MEAN_MOTION_DDOT":"0.0000000000000","CLASSIFICATION_TYPE":"U","MEAN_MOTION_DOT":"0.00001635","ELEMENT_SET_NO":"999","SEMIMAJOR_AXIS":"6925.357","RA_OF_ASC_NODE":"77.4833","CENTER_NAME":"EARTH","TLE_LINE2":"2 47815  53.0551  77.4833 0001983  50.2626 309.8537 15.06397198 64778","APOAPSIS":"548.595","MEAN_ELEMENT_THEORY":"SGP4","REV_AT_EPOCH":"6477","OBJECT_ID":"2021-018AE","BSTAR":"0.00012863000000","TLE_LINE1":"1 47815U 21018AE  22123.89322675  .00001635  00000-0  12863-3 0  9997","PERIOD":"95.592","MEAN_MOTION":"15.06397198","REF_FRAME":"TEME","EPOCH":"2022-05-03T21:26:14.791200","MEAN_ANOMALY":"309.8537","OBJECT_TYPE":"PAYLOAD","FILE":"3427573","INCLINATION":"53.0551","DECAY_DATE":null,"GP_ID":"202634364","OBJECT_NAME":"STARLINK-2396","NORAD_CAT_ID":"47815","LAUNCH_DATE":"2021-03-11","PERIAPSIS":"545.849"},{"SEMIMAJOR_AXIS":"6925.403","MEAN_MOTION_DOT":"0.00001200","ELEMENT_SET_NO":"999","REV_AT_EPOCH":"6428","CENTER_NAME":"EARTH","TLE_LINE2":"2 47816  53.0557  85.1272 0001842  57.7957 302.3210 15.06382121 64283","RA_OF_ASC_NODE":"85.1272","MEAN_ELEMENT_THEORY":"SGP4","APOAPSIS":"548.544","ARG_OF_PERICENTER":"57.7957","TIME_SYSTEM":"UTC","RCS_SIZE":"LARGE","COUNTRY_CODE":"US","MEAN_MOTION_DDOT":"0.0000000000000","CLASSIFICATION_TYPE":"U","EPHEMERIS_TYPE":"0","SITE":"AFETR","ECCENTRICITY":"0.00018420","MEAN_ANOMALY":"302.3210","REF_FRAME":"TEME","EPOCH":"2022-05-03T07:19:00.688512","LAUNCH_DATE":"2021-03-11","PERIAPSIS":"545.993","GP_ID":"202607626","OBJECT_NAME":"STARLINK-2399","NORAD_CAT_ID":"47816","FILE":"3427360","INCLINATION":"53.0557","OBJECT_TYPE":"PAYLOAD","DECAY_DATE":null,"TLE_LINE1":"1 47816U 21018AF  22123.30486908  .00001200  00000-0  99515-4 0  9992","BSTAR":"0.00009951500000","OBJECT_ID":"2021-018AF","PERIOD":"95.593","MEAN_MOTION":"15.06382121"},{"MEAN_ANOMALY":"299.2797","REF_FRAME":"TEME","EPOCH":"2022-05-03T14:07:42.499776","LAUNCH_DATE":"2021-03-11","PERIAPSIS":"546.149","OBJECT_NAME":"STARLINK-2400","GP_ID":"202633363","NORAD_CAT_ID":"47817","FILE":"3427573","INCLINATION":"53.0564","OBJECT_TYPE":"PAYLOAD","DECAY_DATE":null,"TLE_LINE1":"1 47817U 21018AG  22123.58868634  .00000321  00000-0  40444-4 0  9993","BSTAR":"0.00004044400000","OBJECT_ID":"2021-018AG","PERIOD":"95.593","MEAN_MOTION":"15.06392436","SEMIMAJOR_AXIS":"6925.372","ELEMENT_SET_NO":"999","MEAN_MOTION_DOT":"0.00000321","REV_AT_EPOCH":"6465","TLE_LINE2":"2 47817  53.0564  83.8615 0001570  60.8349 299.2797 15.06392436 64651","CENTER_NAME":"EARTH","RA_OF_ASC_NODE":"83.8615","MEAN_ELEMENT_THEORY":"SGP4","APOAPSIS":"548.324","ARG_OF_PERICENTER":"60.8349","TIME_SYSTEM":"UTC","RCS_SIZE":"LARGE","COUNTRY_CODE":"US","MEAN_MOTION_DDOT":"0.0000000000000","CLASSIFICATION_TYPE":"U","EPHEMERIS_TYPE":"0","SITE":"AFETR","ECCENTRICITY":"0.00015700"},{"MEAN_ANOMALY":"306.9406","REF_FRAME":"TEME","EPOCH":"2022-05-03T21:09:00.458784","LAUNCH_DATE":"2021-03-11","PERIAPSIS":"546.094","GP_ID":"202634110","OBJECT_NAME":"STARLINK-2401","NORAD_CAT_ID":"47818","DECAY_DATE":null,"FILE":"3427573","INCLINATION":"53.0543","OBJECT_TYPE":"PAYLOAD","TLE_LINE1":"1 47818U 21018AH  22123.88125531  .00001687  00000-0  13211-3 0  9996","OBJECT_ID":"2021-018AH","BSTAR":"0.00013211000000","MEAN_MOTION":"15.06396015","PERIOD":"95.592","SEMIMAJOR_AXIS":"6925.361","MEAN_MOTION_DOT":"0.00001687","ELEMENT_SET_NO":"999","REV_AT_EPOCH":"6463","APOAPSIS":"548.357","MEAN_ELEMENT_THEORY":"SGP4","CENTER_NAME":"EARTH","TLE_LINE2":"2 47818  53.0543  87.5408 0001634  53.1733 306.9406 15.06396015 64631","RA_OF_ASC_NODE":"87.5408","TIME_SYSTEM":"UTC","RCS_SIZE":"LARGE","ARG_OF_PERICENTER":"53.1733","CLASSIFICATION_TYPE":"U","MEAN_MOTION_DDOT":"0.0000000000000","COUNTRY_CODE":"US","ECCENTRICITY":"0.00016340","SITE":"AFETR","EPHEMERIS_TYPE":"0"},{"TLE_LINE1":"1 47819U 21018AJ  22123.85774836  .00001206  00000-0  99850-4 0  9993","OBJECT_ID":"2021-018AJ","BSTAR":"0.00009985000000","PERIOD":"95.592","MEAN_MOTION":"15.06398024","REF_FRAME":"TEME","EPOCH":"2022-05-03T20:35:09.458304","MEAN_ANOMALY":"309.9425","GP_ID":"202634863","OBJECT_NAME":"STARLINK-2402","NORAD_CAT_ID":"47819","PERIAPSIS":"545.807","LAUNCH_DATE":"2021-03-11","OBJECT_TYPE":"PAYLOAD","FILE":"3427573","INCLINATION":"53.0556","DECAY_DATE":null,"ARG_OF_PERICENTER":"50.1743","RCS_SIZE":"LARGE","TIME_SYSTEM":"UTC","COUNTRY_CODE":"US","MEAN_MOTION_DDOT":"0.0000000000000","CLASSIFICATION_TYPE":"U","SITE":"AFETR","EPHEMERIS_TYPE":"0","ECCENTRICITY":"0.00020400","SEMIMAJOR_AXIS":"6925.355","MEAN_MOTION_DOT":"0.00001206","ELEMENT_SET_NO":"999","REV_AT_EPOCH":"6476","RA_OF_ASC_NODE":"82.6441","TLE_LINE2":"2 47819  53.0556  82.6441 0002040  50.1743 309.9425 15.06398024 64769","CENTER_NAME":"EARTH","MEAN_ELEMENT_THEORY":"SGP4","APOAPSIS":"548.632"},{"MEAN_ANOMALY":"310.0535","REF_FRAME":"TEME","EPOCH":"2022-05-03T21:42:49.927392","OBJECT_TYPE":"PAYLOAD","FILE":"3427573","INCLINATION":"53.0542","DECAY_DATE":null,"OBJECT_NAME":"STARLINK-2403","GP_ID":"202635114","NORAD_CAT_ID":"47820","LAUNCH_DATE":"2021-03-11","PERIAPSIS":"545.964","BSTAR":"0.00014428000000","OBJECT_ID":"2021-018AK","TLE_LINE1":"1 47820U 21018AK  22123.90474453  .00001868  00000-0  14428-3 0  9994","PERIOD":"95.592","MEAN_MOTION":"15.06397503","MEAN_MOTION_DOT":"0.00001868","ELEMENT_SET_NO":"999","SEMIMAJOR_AXIS":"6925.356","RA_OF_ASC_NODE":"92.4409","CENTER_NAME":"EARTH","TLE_LINE2":"2 47820  53.0542  92.4409 0001816  50.0613 310.0535 15.06397503 64625","APOAPSIS":"548.479","MEAN_ELEMENT_THEORY":"SGP4","REV_AT_EPOCH":"6462","ARG_OF_PERICENTER":"50.0613","RCS_SIZE":"LARGE","TIME_SYSTEM":"UTC","SITE":"AFETR","EPHEMERIS_TYPE":"0","ECCENTRICITY":"0.00018160","MEAN_MOTION_DDOT":"0.0000000000000","COUNTRY_CODE":"US","CLASSIFICATION_TYPE":"U"},{"REV_AT_EPOCH":"6466","APOAPSIS":"548.381","MEAN_ELEMENT_THEORY":"SGP4","TLE_LINE2":"2 47821  53.0550  83.7267 0001678  67.2524 292.8642 15.06398403 64667","CENTER_NAME":"EARTH","RA_OF_ASC_NODE":"83.7267","SEMIMAJOR_AXIS":"6925.353","MEAN_MOTION_DOT":"0.00002951","ELEMENT_SET_NO":"999","CLASSIFICATION_TYPE":"U","COUNTRY_CODE":"US","MEAN_MOTION_DDOT":"0.0000000000000","ECCENTRICITY":"0.00016780","SITE":"AFETR","EPHEMERIS_TYPE":"0","TIME_SYSTEM":"UTC","RCS_SIZE":"LARGE","ARG_OF_PERICENTER":"67.2524","LAUNCH_DATE":"2021-03-11","PERIAPSIS":"546.056","GP_ID":"202633863","OBJECT_NAME":"STARLINK-2406","NORAD_CAT_ID":"47821","DECAY_DATE":null,"FILE":"3427573","INCLINATION":"53.0550","OBJECT_TYPE":"PAYLOAD","REF_FRAME":"TEME","EPOCH":"2022-05-03T14:48:47.884032","MEAN_ANOMALY":"292.8642","MEAN_MOTION":"15.06398403","PERIOD":"95.592","TLE_LINE1":"1 47821U 21018AL  22123.61722088  .00002951  00000-0  21694-3 0  9990","BSTAR":"0.00021694000000","OBJECT_ID":"2021-018AL"},{"ARG_OF_PERICENTER":"41.9216","TIME_SYSTEM":"UTC","RCS_SIZE":"LARGE","SITE":"AFETR","EPHEMERIS_TYPE":"0","ECCENTRICITY":"0.00020180","COUNTRY_CODE":"US","MEAN_MOTION_DDOT":"0.0000000000000","CLASSIFICATION_TYPE":"U","MEAN_MOTION_DOT":"0.00001394","ELEMENT_SET_NO":"999","SEMIMAJOR_AXIS":"6925.382","CENTER_NAME":"EARTH","TLE_LINE2":"2 47822  53.0555  92.4907 0002018  41.9216 318.1927 15.06389216 64577","RA_OF_ASC_NODE":"92.4907","APOAPSIS":"548.644","MEAN_ELEMENT_THEORY":"SGP4","REV_AT_EPOCH":"6457","OBJECT_ID":"2021-018AM","BSTAR":"0.00011248000000","TLE_LINE1":"1 47822U 21018AM  22123.89369728  .00001394  00000-0  11248-3 0  9993","PERIOD":"95.593","MEAN_MOTION":"15.06389216","MEAN_ANOMALY":"318.1927","REF_FRAME":"TEME","EPOCH":"2022-05-03T21:26:55.444992","INCLINATION":"53.0555","FILE":"3427573","OBJECT_TYPE":"PAYLOAD","DECAY_DATE":null,"LAUNCH_DATE":"2021-03-11","PERIAPSIS":"545.849","GP_ID":"202633611","OBJECT_NAME":"STARLINK-2407","NORAD_CAT_ID":"47822"}];
